H1 CPF 01  gfz 2022 07 26 12  7072 terrasarx 
H2 0702601  6201 31698    2022 07 26 12 59 42 2022 07 31 00 00 42   120 1 1  0 0 0
H9
10 0 59790  48942.000000  0    1351164.921   4692838.048  -4866178.721
10 0 59790  49062.000000  0    1719148.952   5197011.307  -4190213.380
10 0 59790  49182.000000  0    2065199.331   5604511.126  -3440824.629
10 0 59790  49302.000000  0    2381505.975   5908595.950  -2631080.866
10 0 59790  49422.000000  0    2660666.140   6104451.766  -1775141.036
10 0 59790  49542.000000  0    2895853.166   6189279.396   -888007.589
10 0 59790  49662.000000  0    3080976.488   6162341.963     14740.313
10 0 59790  49782.000000  0    3210828.578   6024970.423    917226.644
10 0 59790  49902.000000  0    3281215.615   5780528.032   1803564.848
10 0 59790  50022.000000  0    3289068.232   5434334.713   2658145.852
10 0 59790  50142.000000  0    3232529.121   4993551.796   3465921.394
10 0 59790  50262.000000  0    3111016.426   4467029.846   4212675.554
10 0 59790  50382.000000  0    2925260.100   3865125.594   4885280.175
10 0 59790  50502.000000  0    2677307.615   3199488.894   5471927.608
10 0 59790  50622.000000  0    2370504.379   2482829.545   5962333.474
10 0 59790  50742.000000  0    2009449.502   1728669.845   6347912.465
10 0 59790  50862.000000  0    1599925.017    951084.489   6621923.913
10 0 59790  50982.000000  0    1148800.679    164435.322   6779582.265
10 0 59790  51102.000000  0     663917.602   -616892.667   6818135.306
10 0 59790  51222.000000  0     153951.720  -1378754.271   6736910.767
10 0 59790  51342.000000  0    -371741.689  -2107500.160   6537327.039
10 0 59790  51462.000000  0    -903299.561  -2790221.547   6222869.318
10 0 59790  51582.000000  0   -1430534.378  -3414979.228   5799030.749
10 0 59790  51702.000000  0   -1943126.668  -3971013.587   5273222.534
10 0 59790  51822.000000  0   -2430827.153  -4448934.533   4654652.753
10 0 59790  51942.000000  0   -2883664.222  -4840887.358   3954171.544
10 0 59790  52062.000000  0   -3292150.500  -5140689.391   3184083.673
10 0 59790  52182.000000  0   -3647482.590  -5343933.566   2357932.246
10 0 59790  52302.000000  0   -3941730.695  -5448057.590   1490259.019
10 0 59790  52422.000000  0   -4168014.537  -5452376.765    596343.854
10 0 59790  52542.000000  0   -4320660.120  -5358078.624   -308071.191
10 0 59790  52662.000000  0   -4395333.594  -5168180.047  -1207067.632
10 0 59790  52782.000000  0   -4389147.883  -4887446.656  -2084840.504
10 0 59790  52902.000000  0   -4300739.198  -4522276.378  -2925984.469
10 0 59790  53022.000000  0   -4130311.941  -4080551.461  -3715769.234
10 0 59790  53142.000000  0   -3879651.576  -3571463.973  -4440398.696
10 0 59790  53262.000000  0   -3552106.309  -3005319.522  -5087249.616
10 0 59790  53382.000000  0   -3152538.106  -2393323.493  -5645085.721
10 0 59790  53502.000000  0   -2687245.157  -1747355.847  -6104243.741
10 0 59790  53622.000000  0   -2163857.868  -1079738.972  -6456790.812
10 0 59790  53742.000000  0   -1591209.508   -403002.851  -6696650.148
10 0 59790  53862.000000  0    -979185.903    270347.010  -6819693.721
10 0 59790  53982.000000  0    -338557.405    928054.797  -6823805.069
10 0 59790  54102.000000  0     319206.643   1558331.850  -6708911.748
10 0 59790  54222.000000  0     982136.995   2150062.022  -6476987.495
10 0 59790  54342.000000  0    1637978.143   2692994.608  -6132023.622
10 0 59790  54462.000000  0    2274410.324   3177920.590  -5679967.257
10 0 59790  54582.000000  0    2879277.723   3596829.212  -5128628.140
10 0 59790  54702.000000  0    3440818.691   3943043.004  -4487555.431
10 0 59790  54822.000000  0    3947895.732   4211329.941  -3767883.688
10 0 59790  54942.000000  0    4390220.005   4397988.735  -2982148.531
10 0 59790  55062.000000  0    4758564.807   4500904.776  -2144073.536
10 0 59790  55182.000000  0    5044962.578   4519574.946  -1268333.285
10 0 59790  55302.000000  0    5242881.618   4455100.460   -370294.631
10 0 59790  55422.000000  0    5347375.033   4310147.105    534257.788
10 0 59790  55542.000000  0    5355200.148   4088874.527   1429405.316
10 0 59790  55662.000000  0    5264905.841   3796834.479   2299383.783
10 0 59790  55782.000000  0    5076882.960   3440840.329   3128870.700
10 0 59790  55902.000000  0    4793375.642   3028812.084   3903263.117
10 0 59790  56022.000000  0    4418455.148   2569600.402   4608940.040
10 0 59790  56142.000000  0    3957958.331   2072794.882   5233503.042
10 0 59790  56262.000000  0    3419390.048   1548522.908   5765995.213
10 0 59790  56382.000000  0    2811792.595   1007240.479   6197089.474
10 0 59790  56502.000000  0    2145587.595    459521.682   6519244.758
10 0 59790  56622.000000  0    1432393.678    -84146.824   6726831.101
10 0 59790  56742.000000  0     684821.612   -613565.529   6816224.442
10 0 59790  56862.000000  0     -83750.604  -1119013.564   6785865.899
10 0 59790  56982.000000  0    -859417.239  -1591426.537   6636286.462
10 0 59790  57102.000000  0   -1627995.815  -2022559.174   6370097.182
10 0 59790  57222.000000  0   -2375284.263  -2405128.629   5991945.337
10 0 59790  57342.000000  0   -3087321.931  -2732938.128   5508440.741
10 0 59790  57462.000000  0   -3750654.493  -3000980.888   4928048.092
10 0 59790  57582.000000  0   -4352593.164  -3205518.995   4260942.738
10 0 59790  57702.000000  0   -4881462.499  -3344136.206   3518836.027
10 0 59790  57822.000000  0   -5326832.890  -3415763.847   2714772.528
10 0 59790  57942.000000  0   -5679733.753  -3420680.063   1862901.491
10 0 59790  58062.000000  0   -5932841.074  -3360481.452    978223.817
10 0 59790  58182.000000  0   -6080633.158  -3238026.088     76321.184
10 0 59790  58302.000000  0   -6119511.587  -3057350.601   -826926.207
10 0 59790  58422.000000  0   -6047883.934  -2823563.061  -1715629.235
10 0 59790  58542.000000  0   -5866203.853  -2542713.469  -2574178.543
10 0 59790  58662.000000  0   -5576970.124  -2221647.009  -3387524.254
10 0 59790  58782.000000  0   -5184685.433  -1867843.781  -4141442.885
10 0 59790  58902.000000  0   -4695776.232  -1489248.976  -4822785.224
10 0 59790  59022.000000  0   -4118476.784  -1094097.952  -5419701.836
10 0 59790  59142.000000  0   -3462679.495   -690739.781  -5921841.700
10 0 59790  59262.000000  0   -2739756.743   -287463.978  -6320521.019
10 0 59790  59382.000000  0   -1962358.480    107666.093  -6608861.727
10 0 59790  59502.000000  0   -1144188.600    486969.567  -6781898.631
10 0 59790  59622.000000  0    -299765.884    843292.350  -6836655.163
10 0 59790  59742.000000  0     555827.956   1170138.522  -6772188.304
10 0 59790  59862.000000  0    1407209.954   1461784.678  -6589604.502
10 0 59790  59982.000000  0    2238967.185   1713378.790  -6292044.423
10 0 59790  60102.000000  0    3035930.793   1921020.445  -5884634.409
10 0 59790  60222.000000  0    3783449.089   2081820.884  -5374406.078
10 0 59790  60342.000000  0    4467655.511   2193942.842  -4770186.566
10 0 59790  60462.000000  0    5075729.644   2256619.772  -4082457.325
10 0 59790  60582.000000  0    5596143.653   2270152.790  -3323181.598
10 0 59790  60702.000000  0    6018889.159   2235885.539  -2505604.568
10 0 59790  60822.000000  0    6335681.378   2156157.458  -1644026.928
10 0 59790  60942.000000  0    6540131.949   2034235.603   -753554.253
10 0 59790  61062.000000  0    6627887.341   1874226.106    150171.191
10 0 59790  61182.000000  0    6596726.441   1680966.989   1051252.700
10 0 59790  61302.000000  0    6446616.357   1459906.265   1933824.926
10 0 59790  61422.000000  0    6179726.392   1216967.120   2782343.080
10 0 59790  61542.000000  0    5800394.873    958403.425   3581865.178
10 0 59790  61662.000000  0    5315052.985    690650.485   4318322.029
10 0 59790  61782.000000  0    4732106.434    420174.132   4978767.412
10 0 59790  61902.000000  0    4061781.246    153323.013   5551606.477
10 0 59790  62022.000000  0    3315933.579   -103814.532   6026797.628
10 0 59790  62142.000000  0    2507830.931   -345543.047   6396022.398
10 0 59790  62262.000000  0    1651910.980   -566680.898   6652825.130
10 0 59790  62382.000000  0     763519.964   -762667.868   6792721.145
10 0 59790  62502.000000  0    -141365.419   -929657.058   6813269.968
10 0 59790  62622.000000  0   -1046425.239  -1064589.270   6714114.043
10 0 59790  62742.000000  0   -1935289.499  -1165249.122   6496983.788
10 0 59790  62862.000000  0   -2791832.329  -1230301.056   6165668.565
10 0 59790  62982.000000  0   -3600463.573  -1259305.311   5725956.375
10 0 59790  63102.000000  0   -4346416.314  -1252714.762   5185540.143
10 0 59790  63222.000000  0   -5016022.607  -1211852.310   4553889.026
10 0 59790  63342.000000  0   -5596971.713  -1138867.908   3842086.749
10 0 59790  63462.000000  0   -6078544.550  -1036676.452   3062639.522
10 0 59790  63582.000000  0   -6451820.326   -908878.014   2229258.242
10 0 59790  63702.000000  0   -6709853.186   -759662.188   1356616.127
10 0 59790  63822.000000  0   -6847810.033   -593698.578    460083.772
10 0 59790  63942.000000  0   -6863065.390   -416016.174   -444549.624
10 0 59790  64062.000000  0   -6755252.426   -231874.555  -1341363.377
10 0 59790  64182.000000  0   -6526267.246    -46630.275  -2214594.154
10 0 59790  64302.000000  0   -6180229.649    134397.235  -3048919.007
10 0 59790  64422.000000  0   -5723399.845    306058.223  -3829730.652
10 0 59790  64542.000000  0   -5164051.758    463499.779  -4543394.802
10 0 59790  64662.000000  0   -4512309.854    602283.877  -5177485.485
10 0 59790  64782.000000  0   -3779953.343    718494.513  -5720994.485
10 0 59790  64902.000000  0   -2980193.456    808830.539  -6164512.987
10 0 59790  65022.000000  0   -2127428.800    870682.867  -6500382.239
10 0 59790  65142.000000  0   -1236984.609    902195.773  -6722814.834
10 0 59790  65262.000000  0    -324838.440    902310.950  -6827983.592
10 0 59790  65382.000000  0     592660.307    870793.238  -6814078.905
99
